CTC2_L_00280001-01
1 88114U 22085EX  26070.40846065  .00000000  00000+0  00000-0 0  9996
2 88114  70.0000   0.0000 0000000   0.0000   0.0000 13.89609395    15
CTC2_L_00280001-02
1 88115U 25391GI  26070.40846065  .00000000  00000+0  00000-0 0  9990
2 88115  70.0000   0.0000 0000000   0.0000  90.0000 13.89609395    15
CTC2_L_00280001-03
1 88116U 22869CW  26070.40846065  .00000000  00000+0  00000-0 0  9998
2 88116  70.0000   0.0000 0000000   0.0000 180.0000 13.89609395    16
CTC2_L_00280001-04
1 88117U 22231WD  26070.40846065  .00000000  00000+0  00000-0 0  9992
2 88117  70.0000   0.0000 0000000   0.0000 270.0000 13.89609395    17
CTC2_L_00280002-01
1 88118U 26991G   26070.40846065  .00000000  00000+0  00000-0 0  9990
2 88118  70.0000  12.0000 0000000   0.0000  12.0000 13.89609395    15
CTC2_L_00280002-02
1 88119U 26108BA  26070.40846065  .00000000  00000+0  00000-0 0  9991
2 88119  70.0000  12.0000 0000000   0.0000 102.0000 13.89609395    16
CTC2_L_00280002-03
1 88120U 24416VJ  26070.40846065  .00000000  00000+0  00000-0 0  9993
2 88120  70.0000  12.0000 0000000   0.0000 192.0000 13.89609395    17
CTC2_L_00280002-04
1 88121U 23511QU  26070.40846065  .00000000  00000+0  00000-0 0  9999
2 88121  70.0000  12.0000 0000000   0.0000 282.0000 13.89609395    18
CTC2_L_00280003-01
1 88122U 25462SD  26070.40846065  .00000000  00000+0  00000-0 0  9997
2 88122  70.0000  24.0000 0000000   0.0000  24.0000 13.89609395    16
CTC2_L_00280003-02
1 88123U 24783JY  26070.40846065  .00000000  00000+0  00000-0 0  9993
2 88123  70.0000  24.0000 0000000   0.0000 114.0000 13.89609395    17
CTC2_L_00280003-03
1 88124U 24354MP  26070.40846065  .00000000  00000+0  00000-0 0  9998
2 88124  70.0000  24.0000 0000000   0.0000 204.0000 13.89609395    18
CTC2_L_00280003-04
1 88125U 26093BP  26070.40846065  .00000000  00000+0  00000-0 0  9991
2 88125  70.0000  24.0000 0000000   0.0000 294.0000 13.89609395    18
CTC2_L_00280004-01
1 88126U 22723GZ  26070.40846065  .00000000  00000+0  00000-0 0  9998
2 88126  70.0000  36.0000 0000000   0.0000  36.0000 13.89609395    16
CTC2_L_00280004-02
1 88127U 23439LI  26070.40846065  .00000000  00000+0  00000-0 0  9994
2 88127  70.0000  36.0000 0000000   0.0000 126.0000 13.89609395    17
CTC2_L_00280004-03
1 88128U 24327FO  26070.40846065  .00000000  00000+0  00000-0 0  9992
2 88128  70.0000  36.0000 0000000   0.0000 216.0000 13.89609395    18
CTC2_L_00280004-04
1 88129U 24397WN  26070.40846065  .00000000  00000+0  00000-0 0  9990
2 88129  70.0000  36.0000 0000000   0.0000 306.0000 13.89609395    19
CTC2_L_00280005-01
1 88130U 25227KE  26070.40846065  .00000000  00000+0  00000-0 0  9995
2 88130  70.0000  48.0000 0000000   0.0000  48.0000 13.89609395    17
CTC2_L_00280005-02
1 88131U 24684LO  26070.40846065  .00000000  00000+0  00000-0 0  9992
2 88131  70.0000  48.0000 0000000   0.0000 138.0000 13.89609395    18
CTC2_L_00280005-03
1 88132U 26302RQ  26070.40846065  .00000000  00000+0  00000-0 0  9992
2 88132  70.0000  48.0000 0000000   0.0000 228.0000 13.89609395    19
CTC2_L_00280005-04
1 88133U 22956XF  26070.40846065  .00000000  00000+0  00000-0 0  9994
2 88133  70.0000  48.0000 0000000   0.0000 318.0000 13.89609395    10
CTC2_L_00280006-01
1 88134U 25835TW  26070.40846065  .00000000  00000+0  00000-0 0  9994
2 88134  70.0000  60.0000 0000000   0.0000  60.0000 13.89609395    19
CTC2_L_00280006-02
1 88135U 22556SH  26070.40846065  .00000000  00000+0  00000-0 0  9992
2 88135  70.0000  60.0000 0000000   0.0000 150.0000 13.89609395    10
CTC2_L_00280006-03
1 88136U 22151GO  26070.40846065  .00000000  00000+0  00000-0 0  9994
2 88136  70.0000  60.0000 0000000   0.0000 240.0000 13.89609395    11
CTC2_L_00280006-04
1 88137U 22826SF  26070.40846065  .00000000  00000+0  00000-0 0  9994
2 88137  70.0000  60.0000 0000000   0.0000 330.0000 13.89609395    12
CTC2_L_00280007-01
1 88138U 23165UN  26070.40846065  .00000000  00000+0  00000-0 0  9992
2 88138  70.0000  72.0000 0000000   0.0000  72.0000 13.89609395    19
CTC2_L_00280007-02
1 88139U 25198TL  26070.40846065  .00000000  00000+0  00000-0 0  9991
2 88139  70.0000  72.0000 0000000   0.0000 162.0000 13.89609395    10
CTC2_L_00280007-03
1 88140U 22962NQ  26070.40846065  .00000000  00000+0  00000-0 0  9999
2 88140  70.0000  72.0000 0000000   0.0000 252.0000 13.89609395    12
CTC2_L_00280007-04
1 88141U 26749RX  26070.40846065  .00000000  00000+0  00000-0 0  9997
2 88141  70.0000  72.0000 0000000   0.0000 342.0000 13.89609395    13
CTC2_L_00280008-01
1 88142U 25230XB  26070.40846065  .00000000  00000+0  00000-0 0  9992
2 88142  70.0000  84.0000 0000000   0.0000  84.0000 13.89609395    10
CTC2_L_00280008-02
1 88143U 25651CF  26070.40846065  .00000000  00000+0  00000-0 0  9990
2 88143  70.0000  84.0000 0000000   0.0000 174.0000 13.89609395    11
CTC2_L_00280008-03
1 88144U 24352GO  26070.40846065  .00000000  00000+0  00000-0 0  9998
2 88144  70.0000  84.0000 0000000   0.0000 264.0000 13.89609395    12
CTC2_L_00280008-04
1 88145U 26638XN  26070.40846065  .00000000  00000+0  00000-0 0  9998
2 88145  70.0000  84.0000 0000000   0.0000 354.0000 13.89609395    13
CTC2_L_00280009-01
1 88146U 22537FQ  26070.40846065  .00000000  00000+0  00000-0 0  9993
2 88146  70.0000  96.0000 0000000   0.0000  96.0000 13.89609395    10
CTC2_L_00280009-02
1 88147U 26122KO  26070.40846065  .00000000  00000+0  00000-0 0  9998
2 88147  70.0000  96.0000 0000000   0.0000 186.0000 13.89609395    11
CTC2_L_00280009-03
1 88148U 24875MP  26070.40846065  .00000000  00000+0  00000-0 0  9992
2 88148  70.0000  96.0000 0000000   0.0000 276.0000 13.89609395    12
CTC2_L_00280009-04
1 88149U 24211FN  26070.40846065  .00000000  00000+0  00000-0 0  9997
2 88149  70.0000  96.0000 0000000   0.0000   6.0000 13.89609395    14
CTC2_L_00280010-01
1 88150U 24518JO  26070.40846065  .00000000  00000+0  00000-0 0  9999
2 88150  70.0000 108.0000 0000000   0.0000 108.0000 13.89609395    13
CTC2_L_00280010-02
1 88151U 25881ZL  26070.40846065  .00000000  00000+0  00000-0 0  9994
2 88151  70.0000 108.0000 0000000   0.0000 198.0000 13.89609395    13
CTC2_L_00280010-03
1 88152U 23780VH  26070.40846065  .00000000  00000+0  00000-0 0  9991
2 88152  70.0000 108.0000 0000000   0.0000 288.0000 13.89609395    14
CTC2_L_00280010-04
1 88153U 22877GG  26070.40846065  .00000000  00000+0  00000-0 0  9998
2 88153  70.0000 108.0000 0000000   0.0000  18.0000 13.89609395    16
CTC2_L_00280011-01
1 88154U 26815OZ  26070.40846065  .00000000  00000+0  00000-0 0  9995
2 88154  70.0000 120.0000 0000000   0.0000 120.0000 13.89609395    15
CTC2_L_00280011-02
1 88155U 23872B   26070.40846065  .00000000  00000+0  00000-0 0  9996
2 88155  70.0000 120.0000 0000000   0.0000 210.0000 13.89609395    16
CTC2_L_00280011-03
1 88156U 24190XL  26070.40846065  .00000000  00000+0  00000-0 0  9991
2 88156  70.0000 120.0000 0000000   0.0000 300.0000 13.89609395    17
CTC2_L_00280011-04
1 88157U 23969XG  26070.40846065  .00000000  00000+0  00000-0 0  9995
2 88157  70.0000 120.0000 0000000   0.0000  30.0000 13.89609395    18
CTC2_L_00280012-01
1 88158U 26421VG  26070.40846065  .00000000  00000+0  00000-0 0  9992
2 88158  70.0000 132.0000 0000000   0.0000 132.0000 13.89609395    15
CTC2_L_00280012-02
1 88159U 23405GP  26070.40846065  .00000000  00000+0  00000-0 0  9992
2 88159  70.0000 132.0000 0000000   0.0000 222.0000 13.89609395    16
CTC2_L_00280012-03
1 88160U 26054ZU  26070.40846065  .00000000  00000+0  00000-0 0  9997
2 88160  70.0000 132.0000 0000000   0.0000 312.0000 13.89609395    18
CTC2_L_00280012-04
1 88161U 25720Y   26070.40846065  .00000000  00000+0  00000-0 0  9997
2 88161  70.0000 132.0000 0000000   0.0000  42.0000 13.89609395    19
CTC2_L_00280013-01
1 88162U 22139FO  26070.40846065  .00000000  00000+0  00000-0 0  9999
2 88162  70.0000 144.0000 0000000   0.0000 144.0000 13.89609395    16
CTC2_L_00280013-02
1 88163U 23936ZJ  26070.40846065  .00000000  00000+0  00000-0 0  9996
2 88163  70.0000 144.0000 0000000   0.0000 234.0000 13.89609395    17
CTC2_L_00280013-03
1 88164U 22843OE  26070.40846065  .00000000  00000+0  00000-0 0  9993
2 88164  70.0000 144.0000 0000000   0.0000 324.0000 13.89609395    18
CTC2_L_00280013-04
1 88165U 24345NW  26070.40846065  .00000000  00000+0  00000-0 0  9993
2 88165  70.0000 144.0000 0000000   0.0000  54.0000 13.89609395    19
CTC2_L_00280014-01
1 88166U 22923PK  26070.40846065  .00000000  00000+0  00000-0 0  9994
2 88166  70.0000 156.0000 0000000   0.0000 156.0000 13.89609395    16
CTC2_L_00280014-02
1 88167U 23791AK  26070.40846065  .00000000  00000+0  00000-0 0  9999
2 88167  70.0000 156.0000 0000000   0.0000 246.0000 13.89609395    17
CTC2_L_00280014-03
1 88168U 26357OU  26070.40846065  .00000000  00000+0  00000-0 0  9991
2 88168  70.0000 156.0000 0000000   0.0000 336.0000 13.89609395    18
CTC2_L_00280014-04
1 88169U 24268GG  26070.40846065  .00000000  00000+0  00000-0 0  9991
2 88169  70.0000 156.0000 0000000   0.0000  66.0000 13.89609395    19
CTC2_L_00280015-01
1 88170U 26765ZJ  26070.40846065  .00000000  00000+0  00000-0 0  9997
2 88170  70.0000 168.0000 0000000   0.0000 168.0000 13.89609395    17
CTC2_L_00280015-02
1 88171U 23427YY  26070.40846065  .00000000  00000+0  00000-0 0  9990
2 88171  70.0000 168.0000 0000000   0.0000 258.0000 13.89609395    18
CTC2_L_00280015-03
1 88172U 23834QQ  26070.40846065  .00000000  00000+0  00000-0 0  9993
2 88172  70.0000 168.0000 0000000   0.0000 348.0000 13.89609395    19
CTC2_L_00280015-04
1 88173U 22687GG  26070.40846065  .00000000  00000+0  00000-0 0  9999
2 88173  70.0000 168.0000 0000000   0.0000  78.0000 13.89609395    10
CTC2_L_00280016-01
1 88174U 22437KL  26070.40846065  .00000000  00000+0  00000-0 0  9993
2 88174  70.0000 180.0000 0000000   0.0000 180.0000 13.89609395    19
CTC2_L_00280016-02
1 88175U 24779SW  26070.40846065  .00000000  00000+0  00000-0 0  9995
2 88175  70.0000 180.0000 0000000   0.0000 270.0000 13.89609395    10
